[{"OBJECT_NAME":"STARLINK-34303","OBJECT_ID":"2025-112Y","EPOCH":"2026-03-09T16:47:04.114752","MEAN_MOTION":15.0564864,"ECCENTRICITY":7.256e-5,"INCLINATION":97.6038,"RA_OF_ASC_NODE":121.5956,"ARG_OF_PERICENTER":122.8854,"MEAN_ANOMALY":237.2443,"EPHEMERIS_TYPE":0,"CLASSIFICATION_TYPE":"U","NORAD_CAT_ID":64168,"ELEMENT_SET_NO":999,"REV_AT_EPOCH":4331,"BSTAR":8.3163124e-5,"MEAN_MOTION_DOT":1.139e-5,"MEAN_MOTION_DDOT":0},{"OBJECT_NAME":"ICON","OBJECT_ID":"2019-068A","EPOCH":"2026-03-09T22:35:01.599072","MEAN_MOTION":15.06276737,"ECCENTRICITY":0.00134076,"INCLINATION":26.9847,"RA_OF_ASC_NODE":325.9297,"ARG_OF_PERICENTER":187.0145,"MEAN_ANOMALY":173.0229,"EPHEMERIS_TYPE":0,"CLASSIFICATION_TYPE":"U","NORAD_CAT_ID":44628,"ELEMENT_SET_NO":999,"REV_AT_EPOCH":35105,"BSTAR":0.00030799545,"MEAN_MOTION_DOT":4.879e-5,"MEAN_MOTION_DDOT":0}]
